#aV2023  7 20  0  0  0.00000000     288 DD+AD WGS84 FIT  NGA
## 2271 345600.00000000   300.00000000 60145 0.0000000000000
+   32     1  2  3  4  5  6  7  8  9 10 11 12 13 14 15 16 17
+         18 19 20 21 22 23 24 25 26 27 28 29 30 31 32  0  0
+          0  0  0  0  0  0  0  0  0  0  0  0  0  0  0  0  0
+          0  0  0  0  0  0  0  0  0  0  0  0  0  0  0  0  0
+          0  0  0  0  0  0  0  0  0  0  0  0  0  0  0  0  0
++         2  2  2  2  2  2  2  2  2  2  2  2  2  2  2  2  2
++         2  2  2  2  2  2  2  2  2  2  2  2  2  2  2  0  0
++         0  0  0  0  0  0  0  0  0  0  0  0  0  0  0  0  0
++         0  0  0  0  0  0  0  0  0  0  0  0  0  0  0  0  0
++         0  0  0  0  0  0  0  0  0  0  0  0  0  0  0  0  0
%c cc cc ccc ccc cccc cccc cccc cccc ccccc ccccc ccccc ccccc
%c cc cc ccc ccc cccc cccc cccc cccc ccccc ccccc ccccc ccccc
%f  0.0000000  0.000000000  0.00000000000  0.000000000000000
%f  0.0000000  0.000000000  0.00000000000  0.000000000000000
%i    0    0    0    0      0      0      0      0         0
%i    0    0    0    0      0      0      0      0         0
/*      NGA, ST. LOUIS,MO.                                  
/*   EPHEMERIS COMPUTED FROM 2 DAYS OF DATA                 
/*   EPOCHA v8 SMOOTHER                                     
/*   G2139 IERS2010 SATIGS SATAPC                           
*  2023  7 20  9 50  0.00000000
P  1  13913.912472 -19260.960169  11159.313767    172.135962                    
V  1  -2661.057764  14669.283417  28119.711677     -0.018215                    
P  2  15118.531933 -14021.457601  17155.625221   -574.283870                    
V  2  -2836.742672  20737.094577  20194.781056      0.038959                    
P  3  20078.708737 -12786.154543 -11798.358514   -224.778129                    
V  3  14825.635487  -1470.117863  27262.171179      0.162807                    
P  4   9602.479717 -11916.250608 -21688.868446    101.050794                    
V  4  18393.290594  20535.978946  -3251.974661      0.109517                    
P  5 -25963.936590   4472.342684  -3991.879538   -135.596709                    
V  5   3970.356688  -3694.013748 -31282.240567     -0.014765                    
P  6  -7458.871699 -17248.049598 -18672.024746    576.128583                    
V  6   8166.945419 -22379.900333  17445.297979     -0.038513                    
P  7   5021.539091 -25605.531913   3731.652813    119.826494                    
V  7   4577.603509  -3038.978415 -31351.170076     -0.110215                    
P  8  18024.784817  -1304.143686  19519.246752   -133.121176                    
V  8  16710.973505  18397.380546 -13760.957930     -0.018773                    
P  9    -19.833331 -18882.464191 -18736.532386   -107.688655                    
V  9  17639.122668  15844.059224 -16093.382860      0.093868                    
P 10  10075.030502  12419.438820  21440.057104    -45.883731                    
V 10 -25891.820736   6493.600542   8168.898212     -0.015691                    
P 11 -15094.612652  -2412.867005 -21706.990517   -283.912265                    
V 11   9012.459381 -26062.551155  -3410.870743     -0.164009                    
P 12 -22956.559945  10008.578193  -9001.251044   -402.911448                    
V 12 -11314.746478   -670.218786  29074.873214     -0.046068                    
P 13 -19340.542870  -8128.021138  16231.237441    549.497848                    
V 13 -10705.374938 -17961.862977 -21300.372418      0.049298                    
P 14  -6320.101395 -14417.035519  21425.462362    128.075020                    
V 14  26590.519610  -5694.419677   3855.170560      0.119565                    
P 15 -17504.390698   4151.825920  19150.271864     59.745351                    
V 15 -18829.944981 -17034.286437 -12946.069261      0.035603                    
P 16  25740.937319   1636.346319  -7561.718080   -478.614458                    
V 16  -8686.132283   3375.451860 -29617.710585      0.044879                    
P 17 -12723.827485 -22412.687463   6604.870940    721.318029                    
V 17   6780.648594   4560.808863  30637.761765      0.007539                    
P 18  -3972.532671  25483.487578   5961.930620   -352.331410                    
V 18  -4671.056955   6474.709911 -30941.132837     -0.140945                    
P 19 -17074.393431 -20511.962834  -1851.274805    346.367140                    
V 19    464.975588  -2939.673353  31694.137065      0.051244                    
P 20 -22719.297614   -946.863418 -13533.039408    421.691421                    
V 20  14965.825029  -9150.150800 -24605.427642     -0.020623                    
P 21  15657.180940 -10511.003532  18867.230876    151.930621                    
V 21  -3020.335072  23051.185323  16672.947315     -0.004749                    
P 22  18395.550226  18755.153854  -3986.366153    515.387611                    
V 22   1423.561300   6018.010041  31173.894201      0.054263                    
P 23  -4020.343934  15769.453987  20960.056157     45.302716                    
V 23 -25921.946963   6029.235356  -9666.898479      0.042348                    
P 24 -14517.655302  15981.430010  14821.566863   -263.701004                    
V 24   1058.111336 -19908.769960  22385.057997     -0.122018                    
P 25 -11734.252897  15984.936523 -17855.832108    457.230673                    
V 25 -21971.772615   3544.015713  18188.485684      0.022979                    
P 26  19592.441473   6997.247471 -16818.660268    235.889319                    
V 26 -19548.500454   8167.636629 -19165.539295     -0.012280                    
P 27  21311.613645  10270.848862  12223.318311     -6.726448                    
V 27   9411.899165  12789.106019 -26206.980426     -0.072208                    
P 28   7414.037436  18863.198632 -17187.784245     81.790184                    
V 28  -7250.288416  20613.633701  19515.426078     -0.017378                    
P 29  -2475.305692  17925.455035 -19459.600573   -605.950264                    
V 29 -16288.409767 -18452.903857 -15062.930272     -0.009702                    
P 30  -1945.208663 -23547.280850  11990.387287   -502.923850                    
V 30   7534.926422 -13568.340735 -25945.552785      0.028011                    
P 31  13500.474989   7950.873018 -21583.765761   -220.392080                    
V 31  -8959.932253  25542.531952   4255.015995     -0.006898                    
P 32  16143.556440  20893.552487   3932.833493   -524.757729                    
V 32  -5156.596933  -1633.312397  31098.249332     -0.075384                    
EOF
